NORAD_CAT_ID,OBJECT_NAME,OBJECT_TYPE,EPOCH,MEAN_MOTION,ECCENTRICITY,INCLINATION,RA_OF_ASC_NODE,ARG_OF_PERICENTER,MEAN_ANOMALY,BSTAR,MEAN_MOTION_DOT,MEAN_MOTION_DDOT,TLE_LINE0,TLE_LINE1,TLE_LINE2,SEMIMAJOR_AXIS,PERIOD,APOGEE,PERIGEE,DECAYED
54183.0,STARLINK-5239,PAYLOAD,2024-07-02 04:35:19,15.08840767,0.0001626,53.2153,246.8221,90.4241,269.6937,0.00027782,4.136e-05,0.0,0 STARLINK-5239,1 54183U 22141AC  24184.19119845  .00004136  00000-0  27782-3 0  9991,2 54183  53.2153 246.8221 0001626  90.4241 269.6937 15.08840767 93170,6917.878,95.438,540.868,538.618,0.0
54183.0,STARLINK-5239,PAYLOAD,2024-07-02 10:56:52,15.08841748,0.000161,53.2156,245.6324,92.3298,267.7878,0.00018569,2.669e-05,0.0,0 STARLINK-5239,1 54183U 22141AC  24184.45615769  .00002669  00000-0  18569-3 0  9998,2 54183  53.2156 245.6324 0001610  92.3298 267.7878 15.08841748 92981,6917.875,95.437,540.854,538.626,0.0
54183.0,STARLINK-5239,PAYLOAD,2024-07-03 10:47:39,15.08839248,0.0001502,53.2156,241.1739,92.2756,267.8409,3.5053e-05,2.7e-06,0.0,0 STARLINK-5239,1 54183U 22141AC  24185.44975917  .00000270  00000-0  35053-4 0  9996,2 54183  53.2156 241.1739 0001502  92.2756 267.8409 15.08839248 93366,6917.883,95.438,540.787,538.709,0.0
54183.0,STARLINK-5239,PAYLOAD,2024-07-03 20:19:57,15.08839981,0.0001461,53.2156,239.39,91.6405,268.4755,-1.3691e-05,-5.06e-06,0.0,0 STARLINK-5239,1 54183U 22141AC  24185.84719826 -.00000506  00000-0 -13691-4 0  9993,2 54183  53.2156 239.3900 0001461  91.6405 268.4755 15.08839981 93199,6917.88,95.438,540.756,538.735,0.0
54183.0,STARLINK-5239,PAYLOAD,2024-07-04 13:49:12,15.08846355,0.0001574,53.2154,236.1182,97.6216,262.4955,0.00010421,1.371e-05,0.0,0 STARLINK-5239,1 54183U 22141AC  24186.57583521  .00001371  00000-0  10421-3 0  9991,2 54183  53.2154 236.1182 0001574  97.6216 262.4955 15.08846355 93307,6917.861,95.437,540.815,538.637,0.0
54183.0,STARLINK-5239,PAYLOAD,2024-07-04 20:10:44,15.0884338,0.0001291,53.2148,234.928,91.2254,268.8886,0.00010996,1.463e-05,0.0,0 STARLINK-5239,1 54183U 22141AC  24186.84079644  .00001463  00000-0  10996-3 0  9996,2 54183  53.2148 234.9280 0001291  91.2254 268.8886 15.08843380 93570,6917.87,95.437,540.628,538.842,0.0
54183.0,STARLINK-5239,PAYLOAD,2024-07-05 10:29:13,15.08840754,0.0001322,53.2165,232.252,92.1721,267.9423,9.0568e-05,1.154e-05,0.0,0 STARLINK-5239,1 54183U 22141AC  24187.43695997  .00001154  00000-0  90568-4 0  9998,2 54183  53.2165 232.2520 0001322  92.1721 267.9423 15.08840754 93435,6917.878,95.438,540.658,538.829,0.0
54183.0,STARLINK-5239,PAYLOAD,2024-07-05 20:01:32,15.08840309,0.0001309,53.2164,230.4676,89.5175,270.5967,8.1604e-05,1.011e-05,0.0,0 STARLINK-5239,1 54183U 22141AC  24187.83440073  .00001011  00000-0  81604-4 0  9998,2 54183  53.2164 230.4676 0001309  89.5175 270.5967 15.08840309 93725,6917.879,95.438,540.65,538.839,0.0
54183.0,STARLINK-5239,PAYLOAD,2024-07-06 11:55:23,15.08842874,0.0001366,53.2166,227.4938,87.5964,272.5184,1.9236e-05,1.8e-07,0.0,0 STARLINK-5239,1 54183U 22141AC  24188.49679976  .00000018  00000-0  19236-4 0  9995,2 54183  53.2166 227.4938 0001366  87.5964 272.5184 15.08842874 93598,6917.872,95.437,540.682,538.792,0.0
54183.0,STARLINK-5239,PAYLOAD,2024-07-06 19:52:19,15.08843164,0.0001491,53.2173,226.0065,86.2593,273.857,-8.6694e-05,-1.668e-05,0.0,0 STARLINK-5239,1 54183U 22141AC  24188.82800240 -.00001668  00000-0 -86694-4 0  9998,2 54183  53.2173 226.0065 0001491  86.2593 273.8570 15.08843164 93647,6917.871,95.437,540.767,538.704,0.0
54183.0,STARLINK-5239,PAYLOAD,2024-07-07 10:10:47,15.0883889,0.0001355,53.2161,223.3293,87.3554,272.7593,3.0125e-05,1.92e-06,0.0,0 STARLINK-5239,1 54183U 22141AC  24189.42416271  .00000192  00000-0  30125-4 0  9999,2 54183  53.2161 223.3293 0001355  87.3554 272.7593 15.08838890 93963,6917.884,95.438,540.686,538.811,0.0
54183.0,STARLINK-5239,PAYLOAD,2024-07-08 08:26:10,15.0884624,0.0001343,53.2159,219.1666,86.1983,273.9163,9.4002e-05,1.209e-05,0.0,0 STARLINK-5239,1 54183U 22141AC  24190.35151571  .00001209  00000-0  94002-4 0  9996,2 54183  53.2159 219.1666 0001343  86.1983 273.9163 15.08846240 94108,6917.861,95.437,540.655,538.797,0.0
54183.0,STARLINK-5239,PAYLOAD,2024-07-08 19:33:53,15.08842575,0.000135,53.2159,217.0856,84.9158,275.1988,7.3778e-05,8.87e-06,0.0,0 STARLINK-5239,1 54183U 22141AC  24190.81519812  .00000887  00000-0  73778-4 0  9991,2 54183  53.2159 217.0856 0001350  84.9158 275.1988 15.08842575 93941,6917.873,95.437,540.671,538.804,0.0
54183.0,STARLINK-5239,PAYLOAD,2024-07-09 05:06:12,15.08838829,0.0001371,53.2157,215.3021,83.6076,276.5072,6.2428e-05,7.06e-06,0.0,0 STARLINK-5239,1 54183U 22141AC  24191.21264064  .00000706  00000-0  62428-4 0  9992,2 54183  53.2157 215.3021 0001371  83.6076 276.5072 15.08838829 94231,6917.884,95.438,540.697,538.801,0.0
54183.0,STARLINK-5239,PAYLOAD,2024-07-09 11:27:44,15.08845115,0.0001394,53.2161,214.1115,91.4276,268.6876,8.4512e-05,1.058e-05,0.0,0 STARLINK-5239,1 54183U 22141AC  24191.47759535  .00001058  00000-0  84512-4 0  9991,2 54183  53.2161 214.1115 0001394  91.4276 268.6876 15.08845115 94040,6917.865,95.437,540.694,538.765,0.0
54183.0,STARLINK-5239,PAYLOAD,2024-07-10 04:56:59,15.08838475,0.0001356,53.2163,210.838,101.3294,258.7851,-7.8359e-05,-1.535e-05,0.0,0 STARLINK-5239,1 54183U 22141AC  24192.20624430 -.00001535  00000-0 -78359-4 0  9992,2 54183  53.2163 210.8380 0001356 101.3294 258.7851 15.08838475 94389,6917.885,95.438,540.688,538.812,0.0
54183.0,STARLINK-5239,PAYLOAD,2024-07-10 08:07:45,15.0883652,0.0001488,53.2167,210.2445,94.4244,265.6918,-7.2541e-05,-1.442e-05,0.0,0 STARLINK-5239,1 54183U 22141AC  24192.33872587 -.00001442  00000-0 -72541-4 0  9998,2 54183  53.2167 210.2445 0001488  94.4244 265.6918 15.08836520 94179,6917.891,95.438,540.785,538.727,0.0
54183.0,STARLINK-5239,PAYLOAD,2024-07-11 07:58:33,15.08835876,0.0001417,53.2165,205.7851,93.8948,266.2206,-6.5128e-07,-2.98e-06,0.0,0 STARLINK-5239,1 54183U 22141AC  24193.33232699 -.00000298  00000-0 -65128-6 0  9996,2 54183  53.2165 205.7851 0001417  93.8948 266.2206 15.08835876 94320,6917.893,95.438,540.738,538.778,0.0
54183.0,STARLINK-5239,PAYLOAD,2024-07-11 17:30:51,15.08836765,0.0001338,53.2161,203.9985,87.4267,272.6878,6.3002e-05,7.15e-06,0.0,0 STARLINK-5239,1 54183U 22141AC  24193.72976523  .00000715  00000-0  63002-4 0  9999,2 54183  53.2161 203.9985 0001338  87.4267 272.6878 15.08836765 94615,6917.89,95.438,540.681,538.83,0.0
54183.0,STARLINK-5239,PAYLOAD,2024-07-12 07:49:20,15.08836678,0.0001332,53.216,201.3253,96.3346,263.7798,0.00012103,1.639e-05,0.0,0 STARLINK-5239,1 54183U 22141AC  24194.32592603  .00001639  00000-0  12103-3 0  9990,2 54183  53.2160 201.3253 0001332  96.3346 263.7798 15.08836678 94474,6917.891,95.438,540.677,538.834,0.0
54183.0,STARLINK-5239,PAYLOAD,2024-07-12 17:21:38,15.08837755,0.0001317,53.2159,199.5413,95.7826,264.3316,0.00010283,1.349e-05,0.0,0 STARLINK-5239,1 54183U 22141AC  24194.72336722  .00001349  00000-0  10283-3 0  9997,2 54183  53.2159 199.5413 0001317  95.7826 264.3316 15.08837755 94534,6917.887,95.438,540.663,538.841,0.0
54183.0,STARLINK-5239,PAYLOAD,2024-07-13 04:29:21,15.08837024,0.000133,53.216,197.4597,94.4455,265.6689,5.7661e-05,6.3e-06,0.0,0 STARLINK-5239,1 54183U 22141AC  24195.18705015  .00000630  00000-0  57661-4 0  9997,2 54183  53.2160 197.4597 0001330  94.4455 265.6689 15.08837024 94834,6917.889,95.438,540.675,538.834,0.0
54183.0,STARLINK-5239,PAYLOAD,2024-07-13 09:15:30,15.08839528,0.0001348,53.216,196.5676,94.2671,265.8475,7.5822e-05,9.19e-06,0.0,0 STARLINK-5239,1 54183U 22141AC  24195.38576836  .00000919  00000-0  75822-4 0  9995,2 54183  53.2160 196.5676 0001348  94.2671 265.8475 15.08839528 94633,6917.882,95.438,540.679,538.814,0.0
54183.0,STARLINK-5239,PAYLOAD,2024-07-13 17:12:26,15.08840923,0.0001328,53.2158,195.0805,90.0583,270.0562,5.9939e-05,6.66e-06,0.0,0 STARLINK-5239,1 54183U 22141AC  24195.71696816  .00000666  00000-0  59939-4 0  9993,2 54183  53.2158 195.0805 0001328  90.0583 270.0562 15.08840923 94683,6917.878,95.437,540.661,538.824,0.0
54183.0,STARLINK-5239,PAYLOAD,2024-07-14 09:06:17,15.08845688,0.0001327,53.2157,192.1066,90.1073,270.0071,5.9864e-05,6.65e-06,0.0,0 STARLINK-5239,1 54183U 22141AC  24196.37936486  .00000665  00000-0  59864-4 0  9992,2 54183  53.2157 192.1066 0001327  90.1073 270.0071 15.08845688 95019,6917.863,95.437,540.646,538.81,0.0
54183.0,STARLINK-5239,PAYLOAD,2024-07-14 17:03:12,15.08843417,0.0001344,53.2154,190.6198,89.4592,270.6554,4.7031e-05,4.61e-06,0.0,0 STARLINK-5239,1 54183U 22141AC  24196.71056595  .00000461  00000-0  47031-4 0  9991,2 54183  53.2154 190.6198 0001344  89.4592 270.6554 15.08843417 94830,6917.87,95.437,540.665,538.805,0.0
54183.0,STARLINK-5239,PAYLOAD,2024-07-15 05:46:17,15.08842747,0.0001353,53.215,188.2405,90.1533,269.9615,7.5783e-05,9.18e-06,0.0,0 STARLINK-5239,1 54183U 22141AC  24197.24048516  .00000918  00000-0  75783-4 0  9996,2 54183  53.2150 188.2405 0001353  90.1533 269.9615 15.08842747 94917,6917.872,95.437,540.673,538.801,0.0
54183.0,STARLINK-5239,PAYLOAD,2024-07-15 16:53:59,15.08845136,0.0001363,53.2154,186.1593,89.512,270.6028,7.347e-05,8.82e-06,0.0,0 STARLINK-5239,1 54183U 22141AC  24197.70416300  .00000882  00000-0  73470-4 0  9998,2 54183  53.2154 186.1593 0001363  89.5120 270.6028 15.08845136 95217,6917.865,95.437,540.673,538.787,0.0
54183.0,STARLINK-5239,PAYLOAD,2024-07-16 08:47:50,15.08845826,0.0001433,53.2159,183.1848,95.7903,264.3252,6.2521e-05,7.07e-06,0.0,0 STARLINK-5239,1 54183U 22141AC  24198.36656111  .00000707  00000-0  62521-4 0  9998,2 54183  53.2159 183.1848 0001433  95.7903 264.3252 15.08845826 95088,6917.863,95.437,540.719,538.736,0.0
54183.0,STARLINK-5239,PAYLOAD,2024-07-17 05:27:52,15.08834805,0.0001508,53.217,179.3191,94.7821,265.3343,-1.4812e-05,-5.24e-06,0.0,0 STARLINK-5239,1 54183U 22141AC  24199.22769197 -.00000524  00000-0 -14812-4 0  9992,2 54183  53.2170 179.3191 0001508  94.7821 265.3343 15.08834805 95447,6917.896,95.438,540.804,538.718,0.0
